SILVERSAT               
1 66909U 98067XV  26111.41676986  .02238858  60623-2  17497-2 0  9993
2 66909  51.6081 201.2837 0013138 340.8561  19.1960 16.15331909 21972
ICOR SV                 
1 68127U 26046A   26109.59295808  .02873854  13124-4  51214-3 0  9994
2 68127 123.0635  36.1737 0038563 269.9104  89.7570 16.29449949  6143
SL-4 R/B                
1 68537U 26061S   26111.91834499  .00306768  37814-4  59685-3 0  9995
2 68537  82.3048  75.4453 0014156 307.0905  52.9078 16.00039927  4658
